SARSAT 7 (NOAA 15)      
1 25338U 98030A   17066.45940069  .00000030  00000-0  31566-4 0  9996
2 25338  98.7852  77.1525 0011344 137.9555 222.2497 14.25779930978512
GPS BIIR-07             
1 26690U 01004A   17066.52123094 -.00000046  00000-0  00000+0 0  9994
2 26690  53.0237 162.0791 0179538 255.5586 196.0242  2.00554350117973
METEOSAT-8 (MSG-1)      
1 27509U 02040B   17066.16730309  .00000116  00000-0  00000+0 0  9995
2 27509   4.6648  58.7305 0000651 230.6469 337.2746  1.00276854 53264
GPS BIIR-08             
1 27663U 03005A   17066.40494579 -.00000090  00000-0  00000+0 0  9993
2 27663  56.7301 348.8502 0091533  22.0746  84.3475  2.00565748103338
INSAT 3A                
1 27714U 03013A   17066.50648995 -.00000057  00000-0  00000+0 0  9996
2 27714   0.9412  88.5398 0016591 231.6959 283.6198  0.99797926 50962
GPS BIIR-11             
1 28190U 04009A   17066.24384938 -.00000028  00000-0  00000+0 0  9994
2 28190  55.9506  49.9523 0100124  52.1498  89.6476  2.00566101 95006
GPS BIIR-12             
1 28361U 04023A   17066.47864709  .00000022  00000-0  00000+0 0  9997
2 28361  54.1302 224.0986 0114827 217.9413   7.4647  2.00549967 93099
GPS BIIR-13             
1 28474U 04045A   17066.37114663 -.00000003  00000-0  00000+0 0  9992
2 28474  54.1802 101.8766 0168924 245.1481 262.5471  2.00554915 90457
SARSAT 10 (NOAA 18)     
1 28654U 05018A   17066.53527028  .00000030  00000-0  41459-4 0  9991
2 28654  99.1904  86.2261 0014218   0.9887 359.1309 14.12327555607910
GPS BIIR-14M            
1 28874U 05038A   17066.19083137 -.00000031  00000-0  00000+0 0  9991
2 28874  56.1097  47.2020 0118995 253.8151 229.4304  2.00573506 83858
MSG-2                   
1 28912U 05049B   17066.17395480  .00000034  00000-0  00000+0 0  9993
2 28912   2.0051  70.5932 0000150  29.4215 136.9056  1.00271138 41094
GOES 13                 
1 29155U 06018A   17065.74984070 -.00000277  00000-0  00000+0 0  9991
2 29155   0.3925 272.7368 0004943 126.3081 320.9620  1.00267373 39530
SARSAT 11 (METOP-A)     
1 29499U 06044A   17065.96178447 -.00000000  00000-0  19874-4 0  9996
2 29499  98.6919 127.2299 0002116 108.5824  19.3257 14.21491669538430
GPS BIIR-16M            
1 29601U 06052A   17066.07049016 -.00000089  00000-0  00000+0 0  9995
2 29601  56.7025 347.7840 0063533  44.7127 315.8110  2.00575814 75488
GPS BIIR-17M            
1 32260U 07047A   17065.89027753  .00000024  00000-0  00000-0 0  9997
2 32260  53.2571 220.5615 0089719  31.8102 328.6943  2.00553240 68873
GPS BIIR-18M            
1 32384U 07062A   17066.50056236 -.00000032  00000-0  00000+0 0  9997
2 32384  56.1718  47.7648 0007421 336.9648 238.2574  2.00564995 67609
SARSAT 12 (NOAA 19)     
1 33591U 09005A   17066.52549343  .00000109  00000-0  84450-4 0  9995
2 33591  99.0801  31.9758 0013627 194.3309 165.7478 14.12158966416317
GOES 14                 
1 35491U 09033A   17065.83147070 -.00000122  00000-0  00000+0 0  9991
2 35491   0.0599 116.7385 0006169 127.7089 115.4613  1.00272544 28178
GOES 15                 
1 36411U 10008A   17065.91712584  .00000060  00000-0  00000+0 0  9995
2 36411   0.0243 194.6159 0000695 298.3288 227.0330  1.00281120 25707
ELEKTRO-L 1             
1 37344U 11001A   17065.05948279 -.00000238  00000-0  00000+0 0  9990
2 37344   2.2289  78.2674 0004201 265.1742 173.5926  1.00234382 22475
GLONASS-K 1             
1 37372U 11009A   17066.23045000  .00000028  00000-0  00000+0 0  9996
2 37372  65.3520  68.0826 0009223 245.3063 291.0472  2.13107812 46879
GPS BIIF-2              
1 37753U 11036A   17066.47603875  .00000000  00000-0  00000+0 0  9995
2 37753  55.3893 104.8313 0061863  28.8116 318.8561  2.00561443 41305
GSAT0101 (GALILEO-PFM)  
1 37846U 11060A   17066.14641120 -.00000006  00000-0  00000+0 0  9991
2 37846  55.7504  74.5669 0005219 316.3578  43.6401  1.70473623 33471
GSAT0102 (GALILEO-FM2)  
1 37847U 11060B   17066.21686733 -.00000006  00000-0  00000+0 0  9999
2 37847  55.7511  74.5645 0006500 302.9005 142.9262  1.70475802 33473
LUCH 5A                 
1 37951U 11074B   17066.60959500 -.00000074  00000-0  00000+0 0  9993
2 37951   1.5578 190.5334 0004590 146.0119 215.5424  1.00275407 19210
MSG-3                   
1 38552U 12035B   17065.54400855 -.00000034  00000-0  00000+0 0  9991
2 38552   0.7219  47.1325 0000824 219.8279  93.0039  1.00268298 17231
SARSAT 13 (METOP-B)     
1 38771U 12049A   17066.19911111 -.00000001  00000-0  19364-4 0  9995
2 38771  98.6923 128.0102 0001737 132.5069 294.6356 14.21492380231783
GPS BIIF-3              
1 38833U 12053A   17065.98425645  .00000018  00000-0  00000+0 0  9996
2 38833  54.2190 282.7867 0054811  24.7247 335.5796  2.00560159 32363
GSAT0103 (GALILEO-FM3)  
1 38857U 12055A   17064.43075484  .00000006  00000-0  00000+0 0  9992
2 38857  54.9136 194.9033 0002873 217.4296 142.5127  1.70473541 27363
GSAT0104 (GALILEO-FM4)  
1 38858U 12055B   17058.49922177  .00000018  00000-0  00000+0 0  9995
2 38858  54.9154 195.0667 0001833 201.6397 158.2968  1.70473607 27204
GPS BIIF-4              
1 39166U 13023A   17066.33708345 -.00000038  00000-0  00000+0 0  9998
2 39166  55.8183  44.2442 0044317  13.5701 346.5493  2.00565291 27905
INSAT-3D                
1 39216U 13038B   17065.31575760 -.00000181  00000-0  00000+0 0  9999
2 39216   0.0213 121.1004 0001882 204.9564  33.9046  1.00270982 13319
GPS BIIF-5              
1 39533U 14008A   17065.84255003  .00000009  00000-0  00000+0 0  9990
2 39533  54.3737 288.0722 0024886 180.1305 179.9143  2.00559460 22266
LUCH 5V                 
1 39727U 14023A   17066.22731024 -.00000296  00000-0  00000+0 0  9996
2 39727   2.9046 299.1752 0003453  48.7416 353.7459  1.00270088528547
GPS BIIF-6              
1 39741U 14026A   17066.11965014 -.00000002  00000-0  00000+0 0  9996
2 39741  55.3769 104.3650 0009522 282.1224  77.8378  2.00568573 20546
GPS BIIF-7              
1 40105U 14045A   17066.21256946  .00000027  00000-0  00000+0 0  9997
2 40105  54.6527 223.9617 0006830 107.2878 252.7556  2.00562734 18999
GSAT0201 (GALILEO 5)    
1 40128U 14050A   17066.18747621 -.00000047  00000-0  00000+0 0  9992
2 40128  50.2516  49.2997 1613594  59.9478 315.0968  1.85519417 17389
GSAT0202 (GALILEO 6)    
1 40129U 14050B   17066.45547941 -.00000049  00000-0  00000+0 0  9998
2 40129  50.3062  48.2822 1614358  60.9913 314.2410  1.85520004 17587
GPS BIIF-8              
1 40294U 14068A   17066.08016231 -.00000041  00000-0  00000+0 0  9994
2 40294  54.9869 164.5588 0004799 350.6572   9.3413  2.00550119 17210
GLONASS-K 2             
1 40315U 14075A   17065.54434456 -.00000015  00000-0  00000+0 0  9990
2 40315  64.4593 308.9394 0013547 210.8561 286.8250  2.13098581 17629
GPS BIIF-9              
1 40534U 15013A   17066.21917168 -.00000089  00000-0  00000+0 0  9998
2 40534  54.9721 343.8663 0017731 351.1527   8.8347  2.00564477 14282
GSAT0203 (GALILEO 7)    
1 40544U 15017A   17065.34236758 -.00000006  00000-0  00000+0 0  9994
2 40544  55.5383  74.8953 0004526 262.2656  97.7217  1.70475350 12064
GSAT0204 (GALILEO 8)    
1 40545U 15017B   17065.12553160 -.00000007  00000-0  00000-0 0  9992
2 40545  55.5445  74.9120 0002160 252.5349 107.4800  1.70475475 12070
GPS BIIF-10             
1 40730U 15033A   17065.88235551 -.00000037  00000-0  00000+0 0  9992
2 40730  55.3531  43.9798 0027305 309.7350  50.0266  2.00572498 12034
GSAT0205 (GALILEO 9)    
1 40889U 15045A   17058.91224498 -.00000021  00000-0  00000+0 0  9997
2 40889  57.0898 315.1038 0004359   5.8611 354.2121  1.70474312  9119
GSAT0206 (GALILEO 10)   
1 40890U 15045B   17063.82488928 -.00000041  00000-0  00000+0 0  9997
2 40890  57.0857 314.9667 0002741   6.6087 353.4458  1.70474336  9222
GPS BIIF-11             
1 41019U 15062A   17065.93415187 -.00000040  00000-0  00000+0 0  9990
2 41019  54.9975 164.3480 0023772 201.7916 158.1156  2.00563087  9859
GSAT0209 (GALILEO 12)   
1 41174U 15079A   17066.34366085 -.00000015  00000-0  00000+0 0  9990
2 41174  54.9263 194.5372 0003632 286.1151  73.7988  1.70473925  7587
GSAT0208 (GALILEO 11)   
1 41175U 15079B   17065.97703131 -.00000011  00000-0  00000+0 0  9992
2 41175  54.9247 194.5486 0002684 282.5377  77.3881  1.70473928  7587
GPS BIIF-12             
1 41328U 16007A   17066.01925388  .00000031  00000-0  00000+0 0  9991
2 41328  54.9115 224.1291 0009563 214.2526 145.6554  2.00559988  7914
GSAT0211 (GALILEO 14)   
1 41549U 16030A   17064.92337864 -.00000043  00000-0  00000+0 0  9990
2 41549  57.2245 314.6720 0003063 322.7612  37.2666  1.70474090  4868
GSAT0210 (GALILEO 13)   
1 41550U 16030B   17065.80323793 -.00000043  00000-0  00000+0 0  9996
2 41550  57.2234 314.6503 0001778 293.4138  66.6166  1.70474149  4872
